start=new Date('2022-04-01T00:00:00.000Z').valueOf();
sats=[{"PERIOD":"95.591","LAUNCH_DATE":"2020-01-29","MEAN_ELEMENT_THEORY":"SGP4","CENTER_NAME":"EARTH","DECAY_DATE":null,"TLE_LINE1":"1 45073U 20006AF  22090.48939908  .00009153  00000-0  63238-3 0  9993","MEAN_MOTION_DOT":"0.00009153","TIME_SYSTEM":"UTC","REF_FRAME":"TEME","TLE_LINE2":"2 45073  53.0523 247.4296 0001760  58.4848 301.6313 15.06411982119818","MEAN_MOTION":"15.06411982","APOAPSIS":"548.396","CLASSIFICATION_TYPE":"U","OBJECT_TYPE":"PAYLOAD","OBJECT_NAME":"STARLINK-1170","GP_ID":"200143862","SITE":"AFETR","MEAN_ANOMALY":"301.6313","REV_AT_EPOCH":"11981","RCS_SIZE":"LARGE","MEAN_MOTION_DDOT":"0.0000000000000","EPOCH":"2022-03-31T11:44:44.080512","INCLINATION":"53.0523","SEMIMAJOR_AXIS":"6925.312","COUNTRY_CODE":"US","ECCENTRICITY":"0.00017600","BSTAR":"0.00063238000000","PERIAPSIS":"545.958","EPHEMERIS_TYPE":"0","ELEMENT_SET_NO":"999","OBJECT_ID":"2020-006AF","RA_OF_ASC_NODE":"247.4296","FILE":"3381849","ARG_OF_PERICENTER":"58.4848","NORAD_CAT_ID":"45073"},{"MEAN_MOTION":"15.06392725","TLE_LINE2":"2 45074  53.0513 247.5151 0001312  88.1257 271.9882 15.06392725119819","MEAN_MOTION_DOT":"0.00000073","REF_FRAME":"TEME","TIME_SYSTEM":"UTC","GP_ID":"200144120","OBJECT_NAME":"STARLINK-1172","OBJECT_TYPE":"PAYLOAD","CLASSIFICATION_TYPE":"U","APOAPSIS":"548.144","CENTER_NAME":"EARTH","MEAN_ELEMENT_THEORY":"SGP4","LAUNCH_DATE":"2020-01-29","PERIOD":"95.593","TLE_LINE1":"1 45074U 20006AG  22090.47465694  .00000073  00000-0  23801-4 0  9994","DECAY_DATE":null,"EPHEMERIS_TYPE":"0","PERIAPSIS":"546.327","BSTAR":"0.00002380100000","ECCENTRICITY":"0.00013120","COUNTRY_CODE":"US","SEMIMAJOR_AXIS":"6925.371","INCLINATION":"53.0513","NORAD_CAT_ID":"45074","ARG_OF_PERICENTER":"88.1257","RA_OF_ASC_NODE":"247.5151","FILE":"3381849","OBJECT_ID":"2020-006AG","ELEMENT_SET_NO":"999","MEAN_ANOMALY":"271.9882","SITE":"AFETR","MEAN_MOTION_DDOT":"0.0000000000000","RCS_SIZE":"LARGE","EPOCH":"2022-03-31T11:23:30.359616","REV_AT_EPOCH":"11981"},{"RCS_SIZE":"LARGE","EPOCH":"2022-03-31T13:46:48.980928","MEAN_MOTION_DDOT":"0.0000000000000","REV_AT_EPOCH":"11983","SITE":"AFETR","MEAN_ANOMALY":"285.8585","NORAD_CAT_ID":"45075","ARG_OF_PERICENTER":"74.2579","RA_OF_ASC_NODE":"247.0559","FILE":"3381849","ELEMENT_SET_NO":"999","OBJECT_ID":"2020-006AH","BSTAR":"0.00016500000000","EPHEMERIS_TYPE":"0","PERIAPSIS":"546.103","ECCENTRICITY":"0.00015830","INCLINATION":"53.0523","SEMIMAJOR_AXIS":"6925.335","COUNTRY_CODE":"US","TLE_LINE1":"1 45075U 20006AH  22090.57417802  .00002177  00000-0  16500-3 0  9998","DECAY_DATE":null,"CENTER_NAME":"EARTH","LAUNCH_DATE":"2020-01-29","MEAN_ELEMENT_THEORY":"SGP4","PERIOD":"95.592","GP_ID":"200144356","OBJECT_NAME":"STARLINK-1174","CLASSIFICATION_TYPE":"U","OBJECT_TYPE":"PAYLOAD","APOAPSIS":"548.296","MEAN_MOTION":"15.06404543","REF_FRAME":"TEME","MEAN_MOTION_DOT":"0.00002177","TIME_SYSTEM":"UTC","TLE_LINE2":"2 45075  53.0523 247.0559 0001583  74.2579 285.8585 15.06404543119839"},{"OBJECT_NAME":"STARLINK-1180","GP_ID":"200143612","APOAPSIS":"548.033","CLASSIFICATION_TYPE":"U","OBJECT_TYPE":"PAYLOAD","MEAN_MOTION":"15.06402737","MEAN_MOTION_DOT":"0.00003638","TIME_SYSTEM":"UTC","REF_FRAME":"TEME","TLE_LINE2":"2 45076  53.0527 247.3201 0001196  66.6133 293.4982 15.06402737119820","DECAY_DATE":null,"TLE_LINE1":"1 45076U 20006AJ  22090.51520285  .00003638  00000-0  26298-3 0  9991","CENTER_NAME":"EARTH","PERIOD":"95.592","LAUNCH_DATE":"2020-01-29","MEAN_ELEMENT_THEORY":"SGP4","ARG_OF_PERICENTER":"66.6133","NORAD_CAT_ID":"45076","ELEMENT_SET_NO":"999","OBJECT_ID":"2020-006AJ","FILE":"3381849","RA_OF_ASC_NODE":"247.3201","ECCENTRICITY":"0.00011960","BSTAR":"0.00026298000000","PERIAPSIS":"546.377","EPHEMERIS_TYPE":"0","INCLINATION":"53.0527","COUNTRY_CODE":"US","SEMIMAJOR_AXIS":"6925.340","MEAN_MOTION_DDOT":"0.0000000000000","RCS_SIZE":"LARGE","EPOCH":"2022-03-31T12:21:53.526240","REV_AT_EPOCH":"11982","SITE":"AFETR","MEAN_ANOMALY":"293.4982"},{"CENTER_NAME":"EARTH","MEAN_ELEMENT_THEORY":"SGP4","LAUNCH_DATE":"2020-01-29","PERIOD":"90.384","TLE_LINE1":"1 45077U 20006AK  22090.47725804  .00262653  37395-4  73261-3 0  9998","DECAY_DATE":null,"MEAN_MOTION":"15.93199598","TLE_LINE2":"2 45077  53.0485 162.1628 0008206 307.1383  52.8893 15.93199598121016","TIME_SYSTEM":"UTC","MEAN_MOTION_DOT":"0.00262653","REF_FRAME":"TEME","GP_ID":"200143369","OBJECT_NAME":"STARLINK-1182","OBJECT_TYPE":"PAYLOAD","CLASSIFICATION_TYPE":"U","APOAPSIS":"298.812","MEAN_ANOMALY":"52.8893","SITE":"AFETR","RCS_SIZE":"LARGE","EPOCH":"2022-03-31T11:27:15.094656","MEAN_MOTION_DDOT":"0.0000373950000","REV_AT_EPOCH":"12101","EPHEMERIS_TYPE":"0","PERIAPSIS":"287.863","BSTAR":"0.00073261000000","ECCENTRICITY":"0.00082060","SEMIMAJOR_AXIS":"6671.473","COUNTRY_CODE":"US","INCLINATION":"53.0485","NORAD_CAT_ID":"45077","ARG_OF_PERICENTER":"307.1383","RA_OF_ASC_NODE":"162.1628","FILE":"3381849","OBJECT_ID":"2020-006AK","ELEMENT_SET_NO":"999"},{"GP_ID":"200144614","OBJECT_NAME":"STARLINK-1177","OBJECT_TYPE":"PAYLOAD","CLASSIFICATION_TYPE":"U","APOAPSIS":"548.023","MEAN_MOTION":"15.06417540","TLE_LINE2":"2 45078  53.0524 249.0382 0001246  53.6372 306.4732 15.06417540119753","MEAN_MOTION_DOT":"0.00014080","REF_FRAME":"TEME","TIME_SYSTEM":"UTC","TLE_LINE1":"1 45078U 20006AL  22090.13554878  .00014080  00000-0  96181-3 0  9997","DECAY_DATE":null,"CENTER_NAME":"EARTH","MEAN_ELEMENT_THEORY":"SGP4","LAUNCH_DATE":"2020-01-29","PERIOD":"95.591","NORAD_CAT_ID":"45078","ARG_OF_PERICENTER":"53.6372","FILE":"3381849","RA_OF_ASC_NODE":"249.0382","OBJECT_ID":"2020-006AL","ELEMENT_SET_NO":"999","EPHEMERIS_TYPE":"0","PERIAPSIS":"546.297","BSTAR":"0.00096181000000","ECCENTRICITY":"0.00012460","SEMIMAJOR_AXIS":"6925.295","COUNTRY_CODE":"US","INCLINATION":"53.0524","RCS_SIZE":"LARGE","MEAN_MOTION_DDOT":"0.0000000000000","EPOCH":"2022-03-31T03:15:11.414592","REV_AT_EPOCH":"11975","MEAN_ANOMALY":"306.4732","SITE":"AFETR"},{"EPOCH":"2022-03-31T10:41:03.276384","RCS_SIZE":"LARGE","MEAN_MOTION_DDOT":"0.0000000000000","REV_AT_EPOCH":"11980","MEAN_ANOMALY":"269.5570","SITE":"AFETR","ARG_OF_PERICENTER":"90.5569","NORAD_CAT_ID":"45079","OBJECT_ID":"2020-006AM","ELEMENT_SET_NO":"999","FILE":"3381849","RA_OF_ASC_NODE":"247.6294","ECCENTRICITY":"0.00013160","EPHEMERIS_TYPE":"0","PERIAPSIS":"546.299","BSTAR":"0.00018316000000","COUNTRY_CODE":"US","SEMIMAJOR_AXIS":"6925.345","INCLINATION":"53.0527","DECAY_DATE":null,"TLE_LINE1":"1 45079U 20006AM  22090.44517681  .00002448  00000-0  18316-3 0  9992","CENTER_NAME":"EARTH","PERIOD":"95.592","MEAN_ELEMENT_THEORY":"SGP4","LAUNCH_DATE":"2020-01-29","OBJECT_NAME":"STARLINK-1149","GP_ID":"200144850","APOAPSIS":"548.121","OBJECT_TYPE":"PAYLOAD","CLASSIFICATION_TYPE":"U","MEAN_MOTION":"15.06401160","TLE_LINE2":"2 45079  53.0527 247.6294 0001316  90.5569 269.5570 15.06401160119805","MEAN_MOTION_DOT":"0.00002448","REF_FRAME":"TEME","TIME_SYSTEM":"UTC"},{"MEAN_ELEMENT_THEORY":"SGP4","LAUNCH_DATE":"2020-01-29","PERIOD":"95.592","CENTER_NAME":"EARTH","TLE_LINE1":"1 45080U 20006AN  22090.51888282  .00002204  00000-0  16681-3 0  9993","DECAY_DATE":null,"TLE_LINE2":"2 45080  53.0538 247.3035 0001323  51.0068 309.1039 15.06402240119826","MEAN_MOTION_DOT":"0.00002204","TIME_SYSTEM":"UTC","REF_FRAME":"TEME","MEAN_MOTION":"15.06402240","OBJECT_TYPE":"PAYLOAD","CLASSIFICATION_TYPE":"U","APOAPSIS":"548.123","GP_ID":"200143119","OBJECT_NAME":"STARLINK-1153","MEAN_ANOMALY":"309.1039","SITE":"AFETR","REV_AT_EPOCH":"11982","RCS_SIZE":"LARGE","EPOCH":"2022-03-31T12:27:11.475648","MEAN_MOTION_DDOT":"0.0000000000000","SEMIMAJOR_AXIS":"6925.342","COUNTRY_CODE":"US","INCLINATION":"53.0538","PERIAPSIS":"546.290","EPHEMERIS_TYPE":"0","BSTAR":"0.00016681000000","ECCENTRICITY":"0.00013230","FILE":"3381849","RA_OF_ASC_NODE":"247.3035","OBJECT_ID":"2020-006AN","ELEMENT_SET_NO":"999","NORAD_CAT_ID":"45080","ARG_OF_PERICENTER":"51.0068"},{"ARG_OF_PERICENTER":"66.5792","NORAD_CAT_ID":"45081","OBJECT_ID":"2020-006AP","ELEMENT_SET_NO":"999","FILE":"3381849","RA_OF_ASC_NODE":"247.4167","ECCENTRICITY":"0.00015560","PERIAPSIS":"546.124","EPHEMERIS_TYPE":"0","BSTAR":"0.00049847000000","SEMIMAJOR_AXIS":"6925.336","COUNTRY_CODE":"US","INCLINATION":"53.0523","EPOCH":"2022-03-31T11:55:21.319392","RCS_SIZE":"LARGE","MEAN_MOTION_DDOT":"0.0000000000000","REV_AT_EPOCH":"11982","MEAN_ANOMALY":"293.5360","SITE":"AFETR","OBJECT_NAME":"STARLINK-1151","GP_ID":"200143863","APOAPSIS":"548.279","OBJECT_TYPE":"PAYLOAD","CLASSIFICATION_TYPE":"U","MEAN_MOTION":"15.06403967","TLE_LINE2":"2 45081  53.0523 247.4167 0001556  66.5792 293.5360 15.06403967119821","MEAN_MOTION_DOT":"0.00007152","TIME_SYSTEM":"UTC","REF_FRAME":"TEME","DECAY_DATE":null,"TLE_LINE1":"1 45081U 20006AP  22090.49677453  .00007152  00000-0  49847-3 0  9994","CENTER_NAME":"EARTH","PERIOD":"95.592","MEAN_ELEMENT_THEORY":"SGP4","LAUNCH_DATE":"2020-01-29"},{"ARG_OF_PERICENTER":"55.8102","NORAD_CAT_ID":"45082","OBJECT_ID":"2020-006AQ","ELEMENT_SET_NO":"999","RA_OF_ASC_NODE":"248.9406","FILE":"3381849","ECCENTRICITY":"0.00018130","PERIAPSIS":"545.949","EPHEMERIS_TYPE":"0","BSTAR":"0.00002742900000","SEMIMAJOR_AXIS":"6925.340","COUNTRY_CODE":"US","INCLINATION":"53.0554","MEAN_MOTION_DDOT":"0.0000000000000","RCS_SIZE":"LARGE","EPOCH":"2022-03-31T03:41:43.461600","REV_AT_EPOCH":"11976","MEAN_ANOMALY":"304.3058","SITE":"AFETR","OBJECT_NAME":"STARLINK-1160","GP_ID":"200144121","APOAPSIS":"548.460","OBJECT_TYPE":"PAYLOAD","CLASSIFICATION_TYPE":"U","MEAN_MOTION":"15.06402888","TLE_LINE2":"2 45082  53.0554 248.9406 0001813  55.8102 304.3058 15.06402888119769","MEAN_MOTION_DOT":"0.00000127","REF_FRAME":"TEME","TIME_SYSTEM":"UTC","DECAY_DATE":null,"TLE_LINE1":"1 45082U 20006AQ  22090.15397525  .00000127  00000-0  27429-4 0  9995","CENTER_NAME":"EARTH","PERIOD":"95.592","MEAN_ELEMENT_THEORY":"SGP4","LAUNCH_DATE":"2020-01-29"}];
